"","unique_ID","facility_name","address","city","state","county","fips","lat","lon"
"1","10510158","PHYSICIANS TRANSPORT SERVICE STATION 3","360 HERNDON PARKWAY","HERNDON","VA","FAIRFAX","51059",38.9638537,-77.3725967
"2","10509942","D AND K SUPER TRANS INCORPORATED","105 EAST ANNANDALE ROAD","FALLS CHURCH","VA","FALLS CHURCH (CITY)","51610",38.8800794,-77.1727721
"3","10509973","FAIRFAX COUNTY POLICE DEPARTMENT - HELICOPTER DIVISION","4604 WEST OX ROAD","FAIRFAX","VA","FAIRFAX","51059",38.8534583,-77.3734899
"4","10509845","LOUDOUN COUNTY DEPARTMENT OF FIRE RESCUE AND EMERGENCY MANAGEMENT STATION 23 / ASHBURN VOLUNTEER FIRE AND RESCUE DEPARTMENT - MOOREFIELD STATION","21730 RED RUM DRIVE","ASHBURN","VA","LOUDOUN","51107",39.015865,-77.4758526
"5","10509944","DALE CITY VOLUNTEER FIRE DEPARTMENT STATION 13","13511 HILLENDALE DRIVE","DALE CITY","VA","PRINCE WILLIAM","51153",38.6566916,-77.3414246
"6","10510084","LOUDOUN COUNTY DEPARTMENT OF FIRE RESCUE AND EMERGENCY MANAGEMENT STATION 13 / LOUDOUN COUNTY VOLUNTEER RESCUE SQUAD","143 CATOCTIN CIRCLE SE","LEESBURG","VA","LOUDOUN","51107",39.1071618,-77.5584372
"7","10510238","LOUDOUN COUNTY DEPARTMENT OF FIRE RESCUE AND EMERGENCY MANAGEMENT STATION 15 / STERLING VOLUNTEER RESCUE SQUAD","104 COMMERCE STREET","STERLING","VA","LOUDOUN","51107",38.9996973,-77.4019744
"8","10510170","LOUDOUN COUNTY DEPARTMENT OF FIRE RESCUE AND EMERGENCY MANAGEMENT STATION 14 / PURCELLVILLE VOLUNTEER RESCUE SQUAD","211 SOUTH 20TH STREET","PURCELLVILLE","VA","LOUDOUN","51107",39.1349785,-77.714225
"9","10510138","NOKESVILLE VOLUNTEER FIRE DEPARTMENT STATION 5","12826 MARSTELLER DRIVE","NOKESVILLE","VA","PRINCE WILLIAM","51153",38.7003404,-77.5772535
"10","10512540","FAIRFAX COUNTY FIRE AND RESCUE DEPARTMENT STATION 38 - WEST CENTREVILLE","6001 ODAY DRIVE","CENTREVILLE","VA","FAIRFAX","51059",38.8435537,-77.4534551
"11","10512538","FAIRFAX COUNTY FIRE AND RESCUE DEPARTMENT STATION 17 - CENTREVILLE","5856 OLD CENTREVILLE ROAD","CENTREVILLE","VA","FAIRFAX","51059",38.8370771,-77.4300348
"12","10512534","FAIRFAX COUNTY FIRE AND RESCUE DEPARTMENT STATION 16 - CLIFTON","12645 CHAPEL ROAD","CLIFTON","VA","FAIRFAX","51059",38.780954,-77.384531
"13","10512531","FAIRFAX COUNTY FIRE AND RESCUE DEPARTMENT STATION 15 - CHANTILLY","14005 VERNON STREET","CHANTILLY","VA","FAIRFAX","51059",38.891784,-77.4315176
"14","10512525","FAIRFAX COUNTY FIRE AND RESCUE DEPARTMENT STATION 14 - BURKE","9501 OLD BURKE LAKE ROAD","BURKE","VA","FAIRFAX","51059",38.793118,-77.2718999
"15","10512522","FAIRFAX COUNTY FIRE AND RESCUE DEPARTMENT STATION 13 - DUNN LORING","2148 GALLOWS ROAD","DUNN LORING","VA","FAIRFAX","51059",38.9025513,-77.2237953
"16","10512516","FAIRFAX COUNTY FIRE AND RESCUE DEPARTMENT STATION 12 - GREAT FALLS","9916 GEORGETOWN PIKE","GREAT FALLS","VA","FAIRFAX","51059",38.9988267,-77.291142
"17","10512493","FAIRFAX COUNTY FIRE AND RESCUE DEPARTMENT STATION 11 - PENN DAW","6624 HULVEY TERRACE","ALEXANDRIA","VA","FAIRFAX","51059",38.7731143,-77.0793279
"18","10512465","FAIRFAX COUNTY FIRE AND RESCUE DEPARTMENT STATION 9 - MOUNT VERNON","2601 SHERWOOD HALL LANE","ALEXANDRIA","VA","FAIRFAX","51059",38.742741,-77.0772159
"19","10512450","FAIRFAX COUNTY FIRE AND RESCUE DEPARTMENT STATION 8 - ANNANDALE","7128 COLUMBIA PIKE","ANNANDALE","VA","FAIRFAX","51059",38.8325609,-77.1918263
"20","10512446","FAIRFAX COUNTY FIRE AND RESCUE DEPARTMENT STATION 5 - FRANCONIA","6300 BEULAH STREET","ALEXANDRIA","VA","FAIRFAX","51059",38.7806596,-77.1464776
"21","10521708","DALE CITY VOLUNTEER FIRE DEPARTMENT STATION 18","5849 DALE BOULEVARD","DALE CITY","VA","PRINCE WILLIAM","51153",38.6659706,-77.3818949
"22","10518374","FAIRFAX COUNTY FIRE AND RESCUE DEPARTMENT - LOGISTICS DISTRIBUTION CENTER","6800A INDUSTRIAL ROAD","SPRINGFIELD","VA","FAIRFAX","51059",38.799281,-77.1796318
"23","10518369","FAIRFAX COUNTY FIRE AND RESCUE DEPARTMENT STATION 39 - NORTH POINT","1117 RESTON AVENUE","HERNDON","VA","FAIRFAX","51059",38.9980966,-77.3428363
"24","10514476","FAIRFAX COUNTY FIRE AND RESCUE DEPARTMENT STATION 37 - KINGSTOWNE","7936 TELEGRAPH ROAD","ALEXANDRIA","VA","FAIRFAX","51059",38.7427255,-77.159188
"25","10514475","FAIRFAX COUNTY FIRE AND RESCUE DEPARTMENT STATION 36 - FRYING PAN","2660 WEST OX ROAD","HERNDON","VA","FAIRFAX","51059",38.9367961,-77.4138839
"26","10514474","FAIRFAX COUNTY FIRE AND RESCUE DEPARTMENT STATION 35 - POHICK","7801 MARITIME LANE","SPRINGFIELD","VA","FAIRFAX","51059",38.7460931,-77.2527574
"27","10514473","FAIRFAX COUNTY FIRE AND RESCUE DEPARTMENT STATION 34 - OAKTON","10511 ROSEHAVEN STREET","FAIRFAX","VA","FAIRFAX","51059",38.8762825,-77.3087091
"28","10514460","FAIRFAX COUNTY FIRE AND RESCUE DEPARTMENT STATION 32 - FAIRVIEW","5600 BURKE CENTRE PARKWAY","FAIRFAX STATION","VA","FAIRFAX","51059",38.7983282,-77.3262967
"29","10510561","CITY OF ALEXANDRIA FIRE DEPARTMENT STATION 208","175 NORTH PAXTON STREET","ALEXANDRIA","VA","ALEXANDRIA (CITY)","51510",38.8138989,-77.1232664
"30","10510560","CITY OF ALEXANDRIA FIRE DEPARTMENT STATION 207","3307 DUKE STREET","ALEXANDRIA","VA","ALEXANDRIA (CITY)","51510",38.8086428,-77.087177
"31","10510559","CITY OF ALEXANDRIA FIRE DEPARTMENT STATION 206","4609 SEMINARY ROAD","ALEXANDRIA","VA","ALEXANDRIA (CITY)","51510",38.8266539,-77.1088051
"32","10510558","CITY OF ALEXANDRIA FIRE DEPARTMENT STATION 205","1210 CAMERON STREET","ALEXANDRIA","VA","ALEXANDRIA (CITY)","51510",38.8067945,-77.0528208
"33","10510557","CITY OF ALEXANDRIA FIRE DEPARTMENT STATION 203","2801 CAMERON MILLS ROAD","ALEXANDRIA","VA","ALEXANDRIA (CITY)","51510",38.830013,-77.0741028
"34","10514459","FAIRFAX COUNTY FIRE AND RESCUE DEPARTMENT STATION 31 - FOX MILL","2610 RESTON PARKWAY","HERNDON","VA","FAIRFAX","51059",38.9262869,-77.3736432
"35","10514458","FAIRFAX COUNTY FIRE AND RESCUE DEPARTMENT STATION 30 - MERRIFIELD","8739 LEE HIGHWAY","FAIRFAX","VA","FAIRFAX","51059",38.8723383,-77.2482205
"36","10514457","FAIRFAX COUNTY FIRE AND RESCUE DEPARTMENT STATION 29 - TYSONS CORNERS","1560 SPRING HILL ROAD","MCLEAN","VA","FAIRFAX","51059",38.9292246,-77.23926
"37","10514454","FAIRFAX COUNTY FIRE AND RESCUE DEPARTMENT STATION 28 - SEVEN CORNERS","2949 SLEEPY HOLLOW ROAD","FALLS CHURCH","VA","FAIRFAX","51059",38.8703206,-77.1566185
"38","10514453","FAIRFAX COUNTY FIRE AND RESCUE DEPARTMENT STATION 27 - WEST SPRINGFIELD","6140 ROLLING ROAD","SPRINGFIELD","VA","FAIRFAX","51059",38.7835643,-77.2374831
"39","10514452","FAIRFAX COUNTY FIRE AND RESCUE DEPARTMENT STATION 26 - EDSALL ROAD","5316 CAROLINA PLACE","SPRINGFIELD","VA","FAIRFAX","51059",38.8050383,-77.1712495
"40","10510556","CITY OF ALEXANDRIA FIRE DEPARTMENT STATION 202","213 EAST WINDSOR AVENUE","ALEXANDRIA","VA","ALEXANDRIA (CITY)","51510",38.824529,-77.0571861
"41","10514450","FAIRFAX COUNTY FIRE AND RESCUE DEPARTMENT STATION 25 - RESTON","1820 WIEHLE AVENUE","RESTON","VA","FAIRFAX","51059",38.9509359,-77.3360354
"42","10514449","FAIRFAX COUNTY FIRE AND RESCUE DEPARTMENT STATION 24 - WOODLAWN","8701 LUKENS LANE","ALEXANDRIA","VA","FAIRFAX","51059",38.7217462,-77.1192586
"43","10514420","FAIRFAX COUNTY FIRE AND RESCUE DEPARTMENT STATION 23 - ANNANDALE","8914 LITTLE RIVER TURNPIKE","FAIRFAX","VA","FAIRFAX","51059",38.839205,-77.251915
"44","10514203","FAIRFAX COUNTY FIRE AND RESCUE DEPARTMENT STATION 22 - SPRINGFIELD","7011 BACKLICK ROAD","SPRINGFIELD","VA","FAIRFAX","51059",38.7659541,-77.1837791
"45","10512553","FAIRFAX COUNTY FIRE AND RESCUE DEPARTMENT STATION 19 - LORTON","7701 ARMISTEAD ROAD","LORTON","VA","FAIRFAX","51059",38.7036421,-77.2100871
"46","10512551","FAIRFAX COUNTY FIRE AND RESCUE DEPARTMENT STATION 18 - JEFFERSON","3101 HODGE PLACE","FALLS CHURCH","VA","FAIRFAX","51059",38.8656312,-77.1926961
"47","10510555","CITY OF ALEXANDRIA FIRE DEPARTMENT STATION 201","317 PRINCE STREET","ALEXANDRIA","VA","ALEXANDRIA (CITY)","51510",38.8036271,-77.0433445
"48","10504991","LOUDOUN COUNTY DEPARTMENT OF FIRE RESCUE AND EMERGENCY MANAGEMENT STATION 10 / LUCKETTS VOLUNTEER FIRE DEPARTMENT","42367 LUCKETTS ROAD","LEESBURG","VA","LOUDOUN","51107",39.2157059,-77.5333152
"49","10505097","BUCKHALL VOLUNTEER FIRE DEPARTMENT STATION 16","7190 YATES FORD ROAD","MANASSAS","VA","PRINCE WILLIAM","51153",38.7317163,-77.4185739
"50","10505092","COLES DISTRICT VOLUNTEER FIRE DEPARTMENT STATION 6","13712 DUMFRIES ROAD","MANASSAS","VA","PRINCE WILLIAM","51153",38.6562864,-77.4421784
"51","10512105","FAIRFAX COUNTY FIRE AND RESCUE DEPARTMENT STATION 4 - HERNDON","680 SPRING STREET","HERNDON","VA","FAIRFAX","51059",38.9690709,-77.3858608
"52","10512100","FAIRFAX COUNTY FIRE AND RESCUE DEPARTMENT STATION 1 - MCLEAN","1455 LAUGHLIN AVENUE","MCLEAN","VA","FAIRFAX","51059",38.9317856,-77.1776072
"53","10511994","CITY OF FAIRFAX FIRE DEPARTMENT STATION 33","10101 FAIRFAX BOULEVARD","FAIRFAX","VA","FAIRFAX (CITY)","51600",38.8617651,-77.2933489
"54","10573449","LOUDOUN COUNTY DEPARTMENT OF FIRE RESCUE AND EMERGENCY MANAGEMENT STATION 25 / STERLING VOLUNTEER RESCUE SQUAD","46700 MIDDLEFIELD DRIVE","STERLING","VA","LOUDOUN","51107",39.0483541,-77.3828502
"55","10573222","OCCOQUAN - WOODBRIDGE - LORTON VOLUNTEER FIRE DEPARTMENT STATION 12","2170 MONTGOMERY AVENUE","WOODBRIDGE","VA","PRINCE WILLIAM","51153",38.6358532,-77.2761103
"56","10573221","OCCOQUAN - WOODBRIDGE - LORTON VOLUNTEER FIRE DEPARTMENT STATION 14","12400 HEDGES RUN ROAD","WOODBRIDGE","VA","PRINCE WILLIAM","51153",38.6879358,-77.313769
"57","10509760","LOUDOUN COUNTY DEPARTMENT OF FIRE RESCUE AND EMERGENCY MANAGEMENT - TRAINING CENTER","16600 COURAGE COURT","LEESBURG","VA","LOUDOUN","51107",39.0748056,-77.5483929
"58","10573461","LOUDOUN COUNTY DEPARTMENT OF FIRE RESCUE AND EMERGENCY MANAGEMENT STATION 19 / DULLES SOUTH STATION","25216 LOUDOUN COUNTY PARKWAY","CHANTILLY","VA","LOUDOUN","51107",38.9195874,-77.5170106
"59","10424702","METROPOLITAN WASHINGTON AIRPORT AUTHORITY FIRE AND RESCUE STATION 1","RUDDER ROAD","DULLES","VA","LOUDOUN","51107",38.9645249,-77.4485304
"60","10510018","LOUDOUN COUNTY DEPARTMENT OF FIRE RESCUE AND EMERGENCY MANAGEMENT STATION 17 / HAMILTON VOLUNTEER RESCUE SQUAD","39071 EAST COLONIAL HIGHWAY","HAMILTON","VA","LOUDOUN","51107",39.134264,-77.6511614
"61","10168894","FAIRFAX COUNTY FIRE AND EMERGENCY MEDICAL SERVICES - TRAINING ACADEMY","4600 WEST OX ROAD","FAIRFAX","VA","FAIRFAX","51059",38.8523187,-77.3741454
"62","10142830","FAIRFAX COUNTY FIRE AND RESCUE DEPARTMENT STATION 21 - FAIR OAKS","12300 LEE JACKSON MEMORIAL HIGHWAY","FAIRFAX","VA","FAIRFAX","51059",38.8713609,-77.3705479
"63","10521709","DALE CITY VOLUNTEER FIRE DEPARTMENT STATION 10","14998 BIRCHDALE AVENUE","DALE CITY","VA","PRINCE WILLIAM","51153",38.6283282,-77.3103254
"64","10512556","FAIRFAX COUNTY FIRE AND RESCUE DEPARTMENT STATION 20 - GUNSTON","10417 GUNSTON ROAD","LORTON","VA","FAIRFAX","51059",38.6735839,-77.1940899
"65","10504985","LOUDOUN COUNTY DEPARTMENT OF FIRE RESCUE AND EMERGENCY MANAGEMENT STATION 4 / ROUND HILL VOLUNTEER FIRE DEPARTMENT","4 MAIN STREET","ROUND HILL","VA","LOUDOUN","51107",39.1333148,-77.7690557
"66","10510041","PHI AIR MEDICAL","3300 GALLOWS ROAD","FALLS CHURCH","VA","FAIRFAX","51059",38.8585137,-77.2264339
"67","10518371","FAIRFAX COUNTY FIRE AND RESCUE DEPARTMENT STATION 40 - FAIRFAX CENTER","4621 LEGATO ROAD","FAIRFAX","VA","FAIRFAX","51059",38.8488357,-77.3654772
"68","10518381","FAIRFAX COUNTY FIRE AND RESCUE DEPARTMENT - EMERGENCY MEDICAL SERVICES TRAINING CENTER","7921 JONES BRANCH DRIVE","MCLEAN","VA","FAIRFAX","51059",38.9266905,-77.2178974
"69","10510114","METROPOLITAN WASHINGTON AIRPORT AUTHORITY FIRE AND RESCUE DEPARTMENT STATION 301","8 SOUTH AOA ACCESS ROAD","ARLINGTON","VA","ARLINGTON","51013",38.8448097,-77.0430571
"70","10512469","FAIRFAX COUNTY FIRE AND RESCUE DEPARTMENT STATION 10 - BAILEYS CROSSROADS","3601 FIREHOUSE LANE","FALLS CHURCH","VA","FAIRFAX","51059",38.8454888,-77.1391733
"71","10168911","LEESBURG VOLUNTEER FIRE STATION 2","61 PLAZA STREET NE","LEESBURG","VA","LOUDOUN","51107",39.1102519,-77.5492619
"72","10139347","METROPOLITAN WASHINGTON AIRPORT AUTHORITY FIRE AND RESCUE STATION 2","FLIGHT LINE ROAD","DULLES","VA","LOUDOUN","51107",38.9295069,-77.4556596
"73","10510087","LOUDOUN COUNTY DEPARTMENT OF FIRE RESCUE AND EMERGENCY MANAGEMENT STATION 12 / LOVETTSVILLE VOLUNTEER FIRE AND RESCUE DEPARTMENT","12837 BERLIN TURNPIKE","LOVETTSVILLE","VA","LOUDOUN","51107",39.2609136,-77.6445154
"74","10505094","YORKSHIRE VOLUNTEER FIRE DEPARTMENT","8277 PATTON LANE","MANASSAS","VA","PRINCE WILLIAM","51153",38.7943803,-77.4495409
"75","10505093","LAKE JACKSON DISTRICT VOLUNTEER FIRE DEPARTMENT STATION 507","11310 COLES DRIVE","MANASSAS","VA","PRINCE WILLIAM","51153",38.7070951,-77.4529585
"76","10505091","GAINESVILLE VOLUNTEER FIRE AND RESCUE STATION 4","14250 JOHN MARSHALL HIGHWAY","GAINESVILLE","VA","PRINCE WILLIAM","51153",38.8041039,-77.6185747
"77","10505089","OCCOQUAN - WOODBRIDGE - LORTON VOLUNTEER FIRE DEPARTMENT STATION 2","1306 F STREET","WOODBRIDGE","VA","PRINCE WILLIAM","51153",38.663712,-77.2542673
"78","10505257","FAIRFAX COUNTY FIRE AND RESCUE DEPARTMENT STATION 3 - CITY OF FAIRFAX","4081 UNIVERSITY DRIVE","FAIRFAX","VA","FAIRFAX (CITY)","51600",38.8436329,-77.3057096
"79","10505247","CITY OF ALEXANDRIA FIRE DEPARTMENT STATION 204 - HEADQUARTERS","900 2ND STREET","ALEXANDRIA","VA","ALEXANDRIA (CITY)","51510",38.8163243,-77.0466143
"80","10505269","CITY OF MANASSAS PARK FIRE AND RESCUE DEPARTMENT","9080 MANASSAS DRIVE","MANASSAS PARK","VA","MANASSAS PARK (CITY)","51685",38.7707563,-77.4463877
"81","10505268","MANASSAS VOLUNTEER FIRE COMPANY","9322 CENTREVILLE ROAD","MANASSAS","VA","MANASSAS (CITY)","51683",38.7529591,-77.4690722
"82","10505096","EVERGREEN VOLUNTEER FIRE AND RESCUE STATION 15","3510 JAMES MADISON HIGHWAY","HAYMARKET","VA","PRINCE WILLIAM","51153",38.8808288,-77.634383
"83","10505095","STONEWALL JACKSON VOLUNTEER FIRE DEPARTMENT STATION 11","7814 GARNER DRIVE","MANASSAS","VA","PRINCE WILLIAM","51153",38.7866892,-77.5081058
"84","10504994","LOUDOUN COUNTY DEPARTMENT OF FIRE RESCUE AND EMERGENCY MANAGEMENT STATION 16 / NEERSVILLE VOLUNTEER FIRE AND RESCUE COMPANY","11762 HARPERS FERRY ROAD","PURCELLVILLE","VA","LOUDOUN","51107",39.2901111,-77.7211822
"85","10504990","LOUDOUN COUNTY DEPARTMENT OF FIRE RESCUE AND EMERGENCY MANAGEMENT STATION 9 / ARCOLA PLEASANT VALLEY VOLUNTEER FIRE DEPARTMENT","24300 GUM SPRING ROAD","STERLING","VA","LOUDOUN","51107",38.9463996,-77.5378481
"86","10504988","LOUDOUN COUNTY DEPARTMENT OF FIRE RESCUE AND EMERGENCY MANAGEMENT STATION 7 / ALDIE VOLUNTEER FIRE DEPARTMENT","39459 JOHN MOSBY HIGHWAY","ALDIE","VA","LOUDOUN","51107",38.9748857,-77.6394873
"87","10504987","LOUDOUN COUNTY DEPARTMENT OF FIRE RESCUE AND EMERGENCY MANAGEMENT STATION 6 / ASHBURN VOLUNTEER FIRE AND RESCUE DEPARTMENT","20688 ASHBURN ROAD","ASHBURN","VA","LOUDOUN","51107",39.0449359,-77.4864443
"88","10169258","ARLINGTON COUNTY FIRE DEPARTMENT - LOGISTICS","700 SOUTH BALL STREET","ARLINGTON","VA","ARLINGTON","51013",38.8643894,-77.0493549
"89","10510173","QUANTICO FIRE AND EMERGENCY SERVICES STATION 31 - DOD","2045 BARNETT AVENUE","QUANTICO","VA","PRINCE WILLIAM","51153",38.5205743,-77.2959713
"90","10573337","QUANTICO FIRE AND EMERGENCY SERVICES STATION 52 - DOD","ROWELL ROAD","QUANTICO","VA","PRINCE WILLIAM","51153",38.5086848,-77.305705
"91","10509960","DUMFRIES - TRIANGLE RESCUE SQUAD INCORPORATED STATION 3","3800 GRAHAM PARK ROAD","TRIANGLE","VA","PRINCE WILLIAM","51153",38.558365,-77.3252871
"92","10505090","DUMFRIES - TRIANGLE VOLUNTEER FIRE DEPARTMENT STATION 3","18321 JEFFERSON DAVIS HIGHWAY","TRIANGLE","VA","PRINCE WILLIAM","51153",38.5531423,-77.3324483
"93","10505258","FALLS CHURCH VOLUNTEER FIRE DEPARTMENT","6950 LITTLE FALLS ROAD","ARLINGTON","VA","ARLINGTON","51013",38.8875043,-77.1644941
"94","10169224","ARLINGTON COUNTY FIRE DEPARTMENT STATION 3","3900 LEE HIGHWAY","ARLINGTON","VA","ARLINGTON","51013",38.8964266,-77.1072691
"95","10169223","ARLINGTON COUNTY FIRE DEPARTMENT STATION 2","4805 WILSON BOULEVARD","ARLINGTON","VA","ARLINGTON","51013",38.878803,-77.1199885
"96","10169246","ARLINGTON COUNTY FIRE DEPARTMENT STATION 8","4845 LEE HIGHWAY","ARLINGTON","VA","ARLINGTON","51013",38.8966972,-77.1271212
"97","10169226","ARLINGTON COUNTY FIRE DEPARTMENT STATION 4","3121 NORTH 10TH STREET","ARLINGTON","VA","ARLINGTON","51013",38.884706,-77.0959312
"98","10169250","ARLINGTON COUNTY FIRE DEPARTMENT STATION 10","1559 WILSON BOULEVARD","ARLINGTON","VA","ARLINGTON","51013",38.8946715,-77.0765201
"99","10142860","FAIRFAX COUNTY FIRE AND RESCUE DEPARTMENT STATION 2 - VIENNA","400 CENTER STREET SOUTH","VIENNA","VA","FAIRFAX","51059",38.8991133,-77.2614342
"100","10169261","ARLINGTON COUNTY FIRE DEPARTMENT - TRAINING ACADEMY","2800 SOUTH TAYLOR STREET","ARLINGTON","VA","ARLINGTON","51013",38.840901,-77.0937089
"101","10169244","ARLINGTON COUNTY FIRE DEPARTMENT STATION 7","3116 SOUTH ABINGDON STREET","ARLINGTON","VA","ARLINGTON","51013",38.836686,-77.0957426
"102","10169247","ARLINGTON COUNTY FIRE DEPARTMENT STATION 9","1900 SOUTH WALTER REED DRIVE","ARLINGTON","VA","ARLINGTON","51013",38.8517368,-77.0919596
"103","10169229","ARLINGTON COUNTY FIRE DEPARTMENT STATION 5","1750 SOUTH HAYES STREET","ARLINGTON","VA","ARLINGTON","51013",38.8578523,-77.05895
"104","10169230","ARLINGTON COUNTY FIRE DEPARTMENT STATION 6","6950 LITTLE FALLS ROAD","ARLINGTON","VA","ARLINGTON","51013",38.8875034,-77.1644945
"105","10139362","NOKESVILLE VOLUNTEER FIRE DEPARTMENT STATION 25","9405 LINTON HALL ROAD","BRISTOW","VA","PRINCE WILLIAM","51153",38.753108,-77.5730697
"106","10139367","DALE CITY VOLUNTEER FIRE DEPARTMENT STATION 20","3171 PRINCE WILLIAM PARKWAY","DALE CITY","VA","PRINCE WILLIAM","51153",38.6478815,-77.3065143
"107","10505321","WALTER REED ARMY MEDICAL CENTER FIRE AND EMERGENCY SERVICES - DOD","12TH STREET NW","WASHINGTON","DC","DISTRICT OF COLUMBIA","11001",38.9729191,-77.0286565
"108","10142953","DISTRICT OF COLUMBIA FIRE AND EMERGENCY MEDICAL SERVICES DEPARTMENT - ENGINE COMPANY 33","101 ATLANTIC STREET SE","WASHINGTON","DC","DISTRICT OF COLUMBIA","11001",38.8309343,-77.0052476
"109","10142938","DISTRICT OF COLUMBIA FIRE AND EMERGENCY MEDICAL SERVICES DEPARTMENT - ENGINE COMPANY 29","4811 MACARTHUR BOULEVARD NW","WASHINGTON","DC","DISTRICT OF COLUMBIA","11001",38.9155669,-77.0935239
"110","10142924","DISTRICT OF COLUMBIA FIRE AND EMERGENCY MEDICAL SERVICES DEPARTMENT - ENGINE COMPANY 25","3203 MARTIN LUTHER KING JUNIOR AVENUE SE","WASHINGTON","DC","DISTRICT OF COLUMBIA","11001",38.8431583,-77.0007797
"111","10142955","DISTRICT OF COLUMBIA FIRE AND EMERGENCY MEDICAL SERVICES DEPARTMENT - ENGINE COMPANY 3","439 NEW JERSEY AVENUE NW","WASHINGTON","DC","DISTRICT OF COLUMBIA","11001",38.895836,-77.0108887
"112","10154322","DISTRICT OF COLUMBIA FIRE AND EMERGENCY MEDICAL SERVICES DEPARTMENT - TRAINING ACADEMY","4600 SHEPHERD PARKWAY SW","WASHINGTON","DC","DISTRICT OF COLUMBIA","11001",38.8209465,-77.0152831
"113","10161715","AMERICAN MEDICAL RESPONSE","2825 V STREET NE","WASHINGTON","DC","DISTRICT OF COLUMBIA","11001",38.9186719,-76.9682299
"114","10142937","DISTRICT OF COLUMBIA FIRE AND EMERGENCY MEDICAL SERVICES DEPARTMENT - ENGINE COMPANY 20","4300 WISCONSIN AVENUE NW","WASHINGTON","DC","DISTRICT OF COLUMBIA","11001",38.9449752,-77.0784188
"115","10142926","DISTRICT OF COLUMBIA FIRE AND EMERGENCY MEDICAL SERVICES DEPARTMENT - ENGINE COMPANY 19","2813 PENNSYLVANIA AVENUE SE","WASHINGTON","DC","DISTRICT OF COLUMBIA","11001",38.8715957,-76.9669885
"116","10142941","DISTRICT OF COLUMBIA FIRE AND EMERGENCY MEDICAL SERVICES DEPARTMENT - ENGINE COMPANY 18","414 8TH STREET SE","WASHINGTON","DC","DISTRICT OF COLUMBIA","11001",38.883258,-76.9946368
"117","10142945","DISTRICT OF COLUMBIA FIRE AND EMERGENCY MEDICAL SERVICES DEPARTMENT - ENGINE COMPANY 16","1018 13TH STREET NW","WASHINGTON","DC","DISTRICT OF COLUMBIA","11001",38.9033104,-77.0300149
"118","10142952","DISTRICT OF COLUMBIA FIRE AND EMERGENCY MEDICAL SERVICES DEPARTMENT - ENGINE COMPANY 15","2101 14TH STREET SE","WASHINGTON","DC","DISTRICT OF COLUMBIA","11001",38.8648171,-76.9860212
"119","10142944","DISTRICT OF COLUMBIA FIRE AND EMERGENCY MEDICAL SERVICES DEPARTMENT - ENGINE COMPANY 13","450 6TH STREET SW","WASHINGTON","DC","DISTRICT OF COLUMBIA","11001",38.8836058,-77.0193928
"120","10142951","DISTRICT OF COLUMBIA FIRE AND EMERGENCY MEDICAL SERVICES DEPARTMENT - ENGINE COMPANY 12","2225 5TH STREET NE","WASHINGTON","DC","DISTRICT OF COLUMBIA","11001",38.9199121,-76.9991845
"121","10142933","DISTRICT OF COLUMBIA FIRE AND EMERGENCY MEDICAL SERVICES DEPARTMENT - ENGINE COMPANY 11","3420 14TH STREET NW","WASHINGTON","DC","DISTRICT OF COLUMBIA","11001",38.9322469,-77.0330644
"122","10142950","DISTRICT OF COLUMBIA FIRE AND EMERGENCY MEDICAL SERVICES DEPARTMENT - ENGINE COMPANY 10","1342 FLORIDA AVENUE NE","WASHINGTON","DC","DISTRICT OF COLUMBIA","11001",38.9015843,-76.9866942
"123","10142949","DISTRICT OF COLUMBIA FIRE AND EMERGENCY MEDICAL SERVICES DEPARTMENT - ENGINE COMPANY 6","1300 NEW JERSEY AVENUE NW","WASHINGTON","DC","DISTRICT OF COLUMBIA","11001",38.9076981,-77.016078
"124","10142939","DISTRICT OF COLUMBIA FIRE AND EMERGENCY MEDICAL SERVICES DEPARTMENT - ENGINE COMPANY 5","3412 DENT PLACE NW","WASHINGTON","DC","DISTRICT OF COLUMBIA","11001",38.9114379,-77.0684355
"125","10142943","DISTRICT OF COLUMBIA FIRE AND EMERGENCY MEDICAL SERVICES DEPARTMENT - ENGINE COMPANY 2","500 F STREET NW","WASHINGTON","DC","DISTRICT OF COLUMBIA","11001",38.8970727,-77.0194894
"126","10142925","DISTRICT OF COLUMBIA FIRE AND EMERGENCY MEDICAL SERVICES DEPARTMENT - ENGINE COMPANY 32","2425 IRVING STREET SE","WASHINGTON","DC","DISTRICT OF COLUMBIA","11001",38.8526712,-76.9713718
"127","10142936","DISTRICT OF COLUMBIA FIRE AND EMERGENCY MEDICAL SERVICES DEPARTMENT - ENGINE COMPANY 31","4930 CONNECTICUT AVENUE NW","WASHINGTON","DC","DISTRICT OF COLUMBIA","11001",38.9542406,-77.0699071
"128","10142935","DISTRICT OF COLUMBIA FIRE AND EMERGENCY MEDICAL SERVICES DEPARTMENT - ENGINE COMPANY 28","3522 CONNECTICUT AVENUE NW","WASHINGTON","DC","DISTRICT OF COLUMBIA","11001",38.936346,-77.0594036
"129","10142923","DISTRICT OF COLUMBIA FIRE AND EMERGENCY MEDICAL SERVICES DEPARTMENT - ENGINE COMPANY 14","4801 NORTH CAPITOL STREET NE","WASHINGTON","DC","DISTRICT OF COLUMBIA","11001",38.9488658,-77.0082936
"130","10142942","DISTRICT OF COLUMBIA FIRE AND EMERGENCY MEDICAL SERVICES DEPARTMENT - ENGINE COMPANY 7","1101 HALF STREET SW","WASHINGTON","DC","DISTRICT OF COLUMBIA","11001",38.8769282,-77.0112376
"131","10142922","DISTRICT OF COLUMBIA FIRE AND EMERGENCY MEDICAL SERVICES DEPARTMENT - ENGINE COMPANY 22","5760 GEORGIA AVENUE NW","WASHINGTON","DC","DISTRICT OF COLUMBIA","11001",38.9599817,-77.0283396
"132","10142946","DISTRICT OF COLUMBIA FIRE AND EMERGENCY MEDICAL SERVICES DEPARTMENT - ENGINE COMPANY 9","1617 U STREET NW","WASHINGTON","DC","DISTRICT OF COLUMBIA","11001",38.9172961,-77.0375274
"133","10142930","DISTRICT OF COLUMBIA FIRE AND EMERGENCY MEDICAL SERVICES DEPARTMENT - ENGINE COMPANY 26","1340 RHODE ISLAND AVENUE NE","WASHINGTON","DC","DISTRICT OF COLUMBIA","11001",38.9246965,-76.9867709
"134","10142947","DISTRICT OF COLUMBIA FIRE AND EMERGENCY MEDICAL SERVICES DEPARTMENT - ENGINE COMPANY 1","2225 M STREET NW","WASHINGTON","DC","DISTRICT OF COLUMBIA","11001",38.9054948,-77.0497981
"135","10142927","DISTRICT OF COLUMBIA FIRE AND EMERGENCY MEDICAL SERVICES DEPARTMENT - ENGINE COMPANY 30","50 49TH STREET NE","WASHINGTON","DC","DISTRICT OF COLUMBIA","11001",38.8906933,-76.9333276
"136","10142928","DISTRICT OF COLUMBIA FIRE AND EMERGENCY MEDICAL SERVICES DEPARTMENT - ENGINE COMPANY 27","4201 MINNESOTA AVENUE NE","WASHINGTON","DC","DISTRICT OF COLUMBIA","11001",38.9010865,-76.9432501
"137","10142929","DISTRICT OF COLUMBIA FIRE AND EMERGENCY MEDICAL SERVICES DEPARTMENT - ENGINE COMPANY 17","1227 MONROE STREET NE","WASHINGTON","DC","DISTRICT OF COLUMBIA","11001",38.932378,-76.9899075
"138","10142954","DISTRICT OF COLUMBIA FIRE AND EMERGENCY MEDICAL SERVICES DEPARTMENT - FIRE BOATS 1 2 AND 3","550 WATER STREET SW","WASHINGTON","DC","DISTRICT OF COLUMBIA","11001",38.873875,-77.0208489
"139","10142932","DISTRICT OF COLUMBIA FIRE AND EMERGENCY MEDICAL SERVICES DEPARTMENT - ENGINE COMPANY 4","2531 SHERMAN AVENUE NW","WASHINGTON","DC","DISTRICT OF COLUMBIA","11001",38.923398,-77.025027
"140","10142931","DISTRICT OF COLUMBIA FIRE AND EMERGENCY MEDICAL SERVICES DEPARTMENT - ENGINE COMPANY 24","5101 GEORGIA AVENUE NW","WASHINGTON","DC","DISTRICT OF COLUMBIA","11001",38.952144,-77.0270332
"141","10142948","DISTRICT OF COLUMBIA FIRE AND EMERGENCY MEDICAL SERVICES DEPARTMENT - ENGINE COMPANY 23","2119 G STREET NW","WASHINGTON","DC","DISTRICT OF COLUMBIA","11001",38.8985837,-77.0476248
"142","10142934","DISTRICT OF COLUMBIA FIRE AND EMERGENCY MEDICAL SERVICES DEPARTMENT - ENGINE COMPANY 21","1763 LANIER PLACE NW","WASHINGTON","DC","DISTRICT OF COLUMBIA","11001",38.924773,-77.0422105
"143","10142940","DISTRICT OF COLUMBIA FIRE AND EMERGENCY MEDICAL SERVICES DEPARTMENT - ENGINE COMPANY 8","1520 C STREET SE","WASHINGTON","DC","DISTRICT OF COLUMBIA","11001",38.8855391,-76.9829435
"144","10424720","WALTER REED FIRE DEPARTMENT HEADQUARTERS - DOD","6825 GEORGIA AVENUE NW","WASHINGTON","DC","DISTRICT OF COLUMBIA","11001",38.9770553,-77.0268085
"145","10144823","EAST COAST EMERGENCY MEDICAL SERVICES ASSOCIATES","6206 GEORGIA AVENUE NW","WASHINGTON","DC","DISTRICT OF COLUMBIA","11001",38.9653895,-77.0280339
"146","10491689","MONTGOMERY COUNTY FIRE RESCUE STATION 35 - CLARKSBURG","22610 GATEWAY CENTER DRIVE","CLARKSBURG","MD","MONTGOMERY","24031",39.2326181,-77.2812148
"147","10406910","BURTONSVILLE VOLUNTEER FIRE DEPARTMENT STATION 15","13900 OLD COLUMBIA PIKE","SILVER SPRING","MD","MONTGOMERY","24031",39.0851238,-76.9512419
"148","10424650","BRENTWOOD VOLUNTEER FIRE DEPARTMENT / COTTAGE CITY VOLUNTEER FIRE COMPANY / BUNKER HILL VOLUNTEER FIRE AND RESCUE COMPANY","3716 RHODE ISLAND AVENUE","MOUNT RAINIER","MD","PRINCE GEORGES","24033",38.9388275,-76.9570281
"149","10407009","JEFFERSON VOLUNTEER FIRE AND RESCUE 20","4603 LANDER ROAD","JEFFERSON","MD","FREDERICK","24021",39.3611726,-77.5309337
"150","10407007","FREDERICK COUNTY VOLUNTEER FIRE AND RESCUE ASSOCIATION STATION 10 - GUARDIAN HOSE COMPANY","21 NORTH CHURCH STREET","THURMONT","MD","FREDERICK","24021",39.6250086,-77.4113001
"151","10406891","FREDERICK COUNTY VOLUNTEER FIRE AND RESCUE ASSOCIATION STATION 12 - BRADDOCK HEIGHTS VOLUNTEER FIRE COMPANY","6715 JEFFERSON BOULEVARD","FREDERICK","MD","FREDERICK","24021",39.4179794,-77.5049216
"152","10407069","BETHESDA FIRE DEPARTMENT STATION 20","9041 OLD GEORGETOWN ROAD","BETHESDA","MD","MONTGOMERY","24031",39.0041992,-77.1101068
"153","10407020","UPPER MONTGOMERY COUNTY VOLUNTEER FIRE DEPARTMENT STATION 14 - BEALLSVILLE","19801 BEALLSVILLE ROAD","BEALLSVILLE","MD","MONTGOMERY","24031",39.1802523,-77.4116226
"154","10407375","FREDERICK COUNTY VOLUNTEER FIRE AND RESCUE ASSOCIATION STATION 25 - NEW MARKET - GREEN VALLEY","3939 GREEN VALLEY ROAD","MONROVIA","MD","FREDERICK","24021",39.3447165,-77.2671778
"155","10407002","FREDERICK COUNTY VOLUNTEER FIRE AND RESCUE ASSOCIATION STATION 24 - WALKERSVILLE VOLUNTEER RESCUE COMPANY","73 FREDERICK STREET","WALKERSVILLE","MD","FREDERICK","24021",39.4769642,-77.357447
"156","10406927","ROCKVILLE VOLUNTEER FIRE DEPARTMENT STATION 33","11430 FALLS ROAD","POTOMAC","MD","MONTGOMERY","24031",39.0437988,-77.1936646
"157","10407195","PRINCE GEORGES COUNTY FIRE/EMERGENCY MEDICAL SERVICES DEPARTMENT COMPANY 841 / BELTSVILLE VOLUNTEER FIRE DEPARTMENT","3939 POWDER MILL ROAD","BELTSVILLE","MD","PRINCE GEORGES","24033",39.0461942,-76.9376895
"158","10407192","PRINCE GEORGES COUNTY VOLUNTEER FIRE DEPARTMENT COMPANY 855 - BUNKER HILL VOLUNTEER FIRE AND RESCUE COMPANY","3716 RHODE ISLAND AVENUE","MOUNT RAINIER","MD","PRINCE GEORGES","24033",38.9388291,-76.9570248
"159","10424579","NATIONAL INSTITUTES OF HEALTH FIRE DEPARTMENT STATION 51","51 CENTER DRIVE","BETHESDA","MD","MONTGOMERY","24031",39.0035789,-77.108716
"160","10407173","URBANA VOLUNTEER FIRE AND RESCUE COMPANY 23","3602 URBANA PIKE","FREDERICK","MD","FREDERICK","24021",39.3277024,-77.3576601
"161","10407101","MYERSVILLE VOLUNTEER FIRE COMPANY","301 MAIN STREET","MYERSVILLE","MD","FREDERICK","24021",39.5060793,-77.5649957
"162","10407420","FREDERICK COUNTY VOLUNTEER FIRE AND RESCUE ASSOCIATION STATION 33 - SPRING RIDGE FIRE","6061 SPRING RIDGE PARKWAY","FREDERICK","MD","FREDERICK","24021",39.3986923,-77.3471231
"163","10406862","JUNIOR FIRE COMPANY 2","535 NORTH MARKET STREET","FREDERICK","MD","FREDERICK","24021",39.4213351,-77.410401
"164","10407224","IRONSIDES VOLUNTEER RESCUE SQUAD STATION 58","6120 PORT TOBACCO ROAD","LA PLATA","MD","CHARLES","24017",38.4920829,-77.15821
"165","10407260","WALDORF VOLUNTEER FIRE DEPARTMENT / EMERGENCY MEDICAL SERVICES STATION 3","1069 SAINT IGNATIUS DRIVE","WALDORF","MD","CHARLES","24017",38.6006179,-76.902631
"166","10407198","HUGHESVILLE VOLUNTEER FIRE DEPARTMENT AND EMERGENCY MEDICAL SERVICES","15245 PRINCE FREDERICK ROAD","HUGHESVILLE","MD","CHARLES","24017",38.5329925,-76.7813128
"167","10407226","BEL ALTON VOLUNTEER FIRE DEPARTMENT AND EMERGENCY MEDICAL SERVICES","9765 BEL ALTON NEWTOWN ROAD","BEL ALTON","MD","CHARLES","24017",38.461688,-76.98875
"168","10407225","TENTH DISTRICT VOLUNTEER FIRE DEPARTMENT","7035 POORHOUSE ROAD","PISGAH","MD","CHARLES","24017",38.540597,-77.1337223
"169","10407221","NEWBURG VOLUNTEER RESCUE SQUAD AND FIRE DEPARTMENT STATION 14","12245 ROCK POINT ROAD","NEWBURG","MD","CHARLES","24017",38.3753709,-76.9520176
"170","10407220","INDIAN HEAD VOLUNTEER FIRE DEPARTMENT AND RESCUE SQUAD INCORPORATED","4095 INDIAN HEAD HIGHWAY","INDIAN HEAD","MD","CHARLES","24017",38.5991443,-77.1663406
"171","10407219","POTOMAC HEIGHTS VOLUNTEER FIRE DEPARTMENT AND RESCUE SQUAD INCORPORATED","73 GLYMONT ROAD","INDIAN HEAD","MD","CHARLES","24017",38.6041049,-77.1314442
"172","10407228","COBB ISLAND VOLUNTEER FIRE DEPARTMENT AND EMERGENCY MEDICAL SERVICES","13290 MAIN AVENUE","COBB ISLAND","MD","CHARLES","24017",38.2631255,-76.8508036
"173","10407201","WALDORF VOLUNTEER FIRE AND EMERGENCY MEDICAL SERVICES DEPARTMENT STATION 12","7000 SAINT FLORIAN DRIVE","WALDORF","MD","CHARLES","24017",38.6176096,-76.96637
"174","10407431","DENTSVILLE VOLUNTEER EMERGENCY RESCUE SERVICES","12135 CHARLES STREET","LA PLATA","MD","CHARLES","24017",38.4810923,-76.8914334
"175","10407480","CHARLES COUNTY VOLUNTEER RESCUE SQUAD INCORPORATED","2 CALVERT STREET","LA PLATA","MD","CHARLES","24017",38.528774,-76.9800221
"176","10491717","UNIVERSITY OF MARYLAND FIRE AND RESCUE INSTITUTE","10375 AUDIE LANE","LA PLATA","MD","CHARLES","24017",38.5489588,-76.9540796
"177","10406969","CABIN JOHN PARK VOLUNTEER FIRE DEPARTMENT STATION 10","8001 RIVER ROAD","BETHESDA","MD","MONTGOMERY","24031",38.994882,-77.1638745
"178","10406958","UNITED STEAM FIRE COMPANY 3","79 SOUTH MARKET STREET","FREDERICK","MD","FREDERICK","24021",39.412168,-77.4116072
"179","10407199","BRYANS ROAD VOLUNTEER FIRE DEPARTMENT","3099 LIVINGSTON ROAD","BRYANS ROAD","MD","CHARLES","24017",38.6243995,-77.0742341
"180","10406945","RIVERDALE VOLUNTEER FIRE DEPARTMENT COMPANY 7 INCORPORATED","4714 QUEENSBURY ROAD","RIVERDALE","MD","PRINCE GEORGES","24033",38.9624996,-76.9328394
"181","10407197","PRINCE GEORGES COUNTY VOLUNTEER FIRE DEPARTMENT COMPANY 834 - CHILLUM ADELPHI VOLUNTEER FIRE DEPARTMENT","7833 RIGGS ROAD","ADELPHI","MD","PRINCE GEORGES","24033",38.9849072,-76.9775355
"182","10407193","PRINCE GEORGES COUNTY VOLUNTEER FIRE DEPARTMENT COMPANY 837 - RITCHIE HILL VOLUNTEER FIRE COMPANY","1415 RITCHIE MARLBORO ROAD","CAPITOL HEIGHTS","MD","PRINCE GEORGES","24033",38.8690579,-76.853974
"183","10407183","PRINCE GEORGES COUNTY FIRE/EMERGENCY MEDICAL SERVICES DEPARTMENT COMPANY 833 / KENTLAND VOLUNTEER FIRE DEPARTMENT","7701 LANDOVER ROAD","LANDOVER","MD","PRINCE GEORGES","24033",38.9267964,-76.8804497
"184","10406923","GLEN ECHO VOLUNTEER FIRE DEPARTMENT STATION 11","5920 MASSACHUSETTS AVENUE","BETHESDA","MD","MONTGOMERY","24031",38.96293,-77.120992
"185","10407169","PRINCE GEORGES COUNTY VOLUNTEER FIRE DEPARTMENT COMPANY 826 - DISTRICT HEIGHTS","6208 MARLBORO PIKE","DISTRICT HEIGHTS","MD","PRINCE GEORGES","24033",38.855164,-76.8999075
"186","10407166","PRINCE GEORGES COUNTY VOLUNTEER FIRE DEPARTMENT COMPANY 827 - MORNINGSIDE VOLUNTEER FIRE DEPARTMENT","6200 SUITLAND ROAD","MORNINGSIDE","MD","PRINCE GEORGES","24033",38.8339869,-76.9001973
"187","10406912","FREDERICK COUNTY VOLUNTEER FIRE AND RESCUE ASSOCIATION STATION 11 - WALKERSVILLE FIRE COMPANY","79 FREDERICK STREET","WALKERSVILLE","MD","FREDERICK","24021",39.4759749,-77.3588797
"188","10406911","PRINCE GEORGES COUNTY VOLUNTEER FIRE DEPARTMENT COMPANY 848 - WEST LANHAM HILLS VOLUNTEER FIRE DEPARTMENT GOOD LUCK ROAD","8501 GOOD LUCK ROAD","LANHAM","MD","PRINCE GEORGES","24033",38.9777222,-76.860567
"189","10406905","SILVER SPRING VOLUNTEER FIRE DEPARTMENT STATION 19","1945 SEMINARY ROAD","SILVER SPRING","MD","MONTGOMERY","24031",39.0090343,-77.042096
"190","10407120","PRINCE GEORGES COUNTY FIRE/EMERGENCY MEDICAL SERVICES DEPARTMENT COMPANY 812 / COLLEGE PARK VOLUNTEER FIRE DEPARTMENT","8115 BALTIMORE AVENUE","COLLEGE PARK","MD","PRINCE GEORGES","24033",38.9903975,-76.9337426
"191","10407118","PRINCE GEORGES COUNTY FIRE/EMERGENCY MEDICAL SERVICES DEPARTMENT COMPANY 830 / LANDOVER HILLS VOLUNTEER FIRE DEPARTMENT","6801 WEBSTER STREET","LANDOVER HILLS","MD","PRINCE GEORGES","24033",38.9443286,-76.9015089
"192","10407116","PRINCE GEORGES COUNTY FIRE DEPARTMENT COMPANY 822 TUXEDO - CHEVERLY FIRE STATION","5711 TUXEDO ROAD","TUXEDO","MD","PRINCE GEORGES","24033",38.9172067,-76.9217049
"193","10407109","PRINCE GEORGES COUNTY FIRE/EMERGENCY MEDICAL SERVICES DEPARTMENT COMPANY 835 / GREENBELT VOLUNTEER FIRE DEPARTMENT","125 CRESCENT ROAD","GREENBELT","MD","PRINCE GEORGES","24033",39.0042766,-76.8782272
"194","10406887","ROCKVILLE VOLUNTEER FIRE DEPARTMENT STATION 3","380 HUNGERFORD DRIVE","ROCKVILLE","MD","MONTGOMERY","24031",39.0875921,-77.1507126
"195","10407165","PRINCE GEORGES COUNTY FIRE/EMERGENCY MEDICAL SERVICES DEPARTMENT COMPANY 817 / BOULEVARD HEIGHTS VOLUNTEER FIRE AND RESCUE DEPARTMENT","4101 ALTON STREET","CAPITOL HEIGHTS","MD","PRINCE GEORGES","24033",38.8676731,-76.9367066
"196","10407164","PRINCE GEORGES COUNTY FIRE/EMERGENCY MEDICAL SERVICES DEPARTMENT COMPANY 836 / BADEN VOLUNTEER FIRE DEPARTMENT","16608 BRANDYWINE ROAD","BRANDYWINE","MD","PRINCE GEORGES","24033",38.6611421,-76.7787917
"197","10406876","WHEATON VOLUNTEER RESCUE SQUAD RESCUE 2","11435 GRANDVIEW AVENUE","WHEATON","MD","MONTGOMERY","24031",39.0426704,-77.0528302
"198","10406856","PRINCE GEORGES COUNTY FIRE/EMERGENCY MEDICAL SERVICES DEPARTMENT COMPANY 810 / LAUREL VOLUNTEER FIRE DEPARTMENT STATION 1","7411 CHERRY LANE","LAUREL","MD","PRINCE GEORGES","24033",39.0939093,-76.8768842
"199","10406846","PRINCE GEORGES COUNTY VOLUNTEER FIRE DEPARTMENT COMPANY 820 - MARLBORO VOLUNTEER FIRE DEPARTMENT STATION 1","14815 PRATT STREET","UPPER MARLBORO","MD","PRINCE GEORGES","24033",38.8172837,-76.7477604
"200","10407124","PRINCE GEORGES COUNTY VOLUNTEER FIRE DEPARTMENT COMPANY 832 - ALLENTOWN ROAD","8709 ALLENTOWN ROAD","FORT WASHINGTON","MD","PRINCE GEORGES","24033",38.7695013,-76.9528796
"201","10407121","PRINCE GEORGES COUNTY FIRE/EMERGENCY MEDICAL SERVICES DEPARTMENT COMPANY 839 / BOWIE VOLUNTEER FIRE DEPARTMENT - BELAIR","15454 ANNAPOLIS ROAD","BOWIE","MD","PRINCE GEORGES","24033",38.9795956,-76.7360929
"202","10406837","GAITHERSBURG - WASHINGTON GROVE VOLUNTEER FIRE DEPARTMENT STATION 8","801 RUSSELL AVENUE","GAITHERSBURG","MD","MONTGOMERY","24031",39.1551776,-77.2094751
"203","10407104","PRINCE GEORGES COUNTY FIRE/EMERGENCY MEDICAL SERVICES DEPARTMENT COMPANY 818 / GLENN DALE VOLUNTEER FIRE ASSOCIATION","11900 GLENN DALE BOULEVARD","GLENN DALE","MD","PRINCE GEORGES","24033",38.9754341,-76.7994755
"204","10407100","SANDY SPRING VOLUNTEER FIRE DEPARTMENT STATION 4","17921 BROOKE ROAD","SANDY SPRING","MD","MONTGOMERY","24031",39.1506767,-77.0271617
"205","10407095","FREDERICK COUNTY VOLUNTEER FIRE AND RESCUE ASSOCIATION STATION 13 - ROCKY RIDGE VOLUNTEER FIRE COMPANY INCORPORATED","13516 MOTTERS STATION ROAD","ROCKY RIDGE","MD","FREDERICK","24021",39.6073206,-77.3180559
"206","10407092","PRINCE GEORGES COUNTY VOLUNTEER FIRE DEPARTMENT COMPANY 823 - FORESTVILLE","8321 OLD MARLBORO PIKE","UPPER MARLBORO","MD","PRINCE GEORGES","24033",38.8362476,-76.8624843
"207","10407304","FREDERICK COUNTY VOLUNTEER FIRE AND RESCUE ASSOCIATION STATION 9 - NEW MIDWAY VOLUNTEER FIRE COMPANY","12045 WOODSBORO PIKE","NEW MIDWAY","MD","FREDERICK","24021",39.563755,-77.2954846
"208","10407303","FREDERICK COUNTY VOLUNTEER FIRE AND RESCUE ASSOCIATION STATION 17 - LIBERTYTOWN FIRE COMPANY","12027 SOUTH STREET","LIBERTYTOWN","MD","FREDERICK","24021",39.483453,-77.2447915
"209","10407261","GERMANTOWN VOLUNTEER FIRE DEPARTMENT STATION 29","20001 CRYSTAL ROCK DRIVE","GERMANTOWN","MD","MONTGOMERY","24031",39.1852247,-77.2634332
"210","10406814","PRINCE GEORGES COUNTY FIRE/EMERGENCY MEDICAL SERVICES DEPARTMENT COMPANY 814 / BERWYN HEIGHTS VOLUNTEER FIRE DEPARTMENT","8811 60TH AVENUE","BERWYN HEIGHTS","MD","PRINCE GEORGES","24033",38.9956954,-76.9113924
"211","10406811","PRINCE GEORGES COUNTY VOLUNTEER FIRE DEPARTMENT COMPANY 829 - SILVER HILL","3900 OLD SILVER HILL ROAD","SILVER HILL","MD","PRINCE GEORGES","24033",38.8413903,-76.9438807
"212","10407256","LAYTONSVILLE VOLUNTEER FIRE DEPARTMENT STATION 17","21400 LAYTONSVILLE ROAD","LAYTONSVILLE","MD","MONTGOMERY","24031",39.207107,-77.141716
"213","10407247","PRINCE GEORGES COUNTY FIRE/EMERGENCY MEDICAL SERVICES DEPARTMENT COMPANY 840 / BRANDYWINE VOLUNTEER FIRE DEPARTMENT","14201 BRANDYWINE ROAD","BRANDYWINE","MD","PRINCE GEORGES","24033",38.6964689,-76.8423983
"214","10407065","HYATTSTOWN VOLUNTEER FIRE DEPARTMENT STATION 9","25801 FREDERICK ROAD","HYATTSTOWN","MD","MONTGOMERY","24031",39.2801937,-77.3146656
"215","10407059","BETHESDA - CHEVY CHASE RESCUE SQUAD INCORPORATED","5020 BATTERY LANE","BETHESDA","MD","MONTGOMERY","24031",38.9904942,-77.1028603
"216","10407056","MIDDLETOWN VOLUNTEER FIRE COMPANY 7","13 SOUTH CHURCH STREET","MIDDLETOWN","MD","FREDERICK","24021",39.4430874,-77.5457209
"217","10407048","PRINCE GEORGES COUNTY VOLUNTEER FIRE DEPARTMENT COMPANY 825 - CLINTON VOLUNTEER FIRE DEPARTMENT INCORPORATED","9025 WOODYARD ROAD","CLINTON","MD","PRINCE GEORGES","24033",38.7659432,-76.8970346
"218","10407039","PRINCE GEORGES COUNTY VOLUNTEER FIRE DEPARTMENT COMPANY 808 - SEAT PLEASANT","6305 ADDISON ROAD","SEAT PLEASANT","MD","PRINCE GEORGES","24033",38.8876914,-76.8987026
"219","10406996","PRINCE GEORGES COUNTY FIRE DEPARTMENT COMPANY 849 - LAUREL VOLUNTEER FIRE DEPARTMENT / LAUREL VOLUNTEER RESCUE SQUAD","14910 BOWIE ROAD","LAUREL","MD","PRINCE GEORGES","24033",39.094751,-76.8468977
"220","10406992","TAKOMA PARK VOLUNTEER FIRE DEPARTMENT STATION 2","7201 CARROLL AVENUE","TAKOMA PARK","MD","MONTGOMERY","24031",38.9776323,-77.0071566
"221","10407091","PRINCE GEORGES COUNTY FIRE DEPARTMENT STATION 846 - KENTLAND VOLUNTEER FIRE DEPARTMENT COMPANY INCORPORATED","10400 CAMPUS WAY SOUTH","LARGO","MD","PRINCE GEORGES","24033",38.8914856,-76.824851
"222","10407162","PRINCE GEORGES COUNTY VOLUNTEER FIRE DEPARTMENT COMPANY 838 - CHAPEL OAKS VOLUNTEER FIRE DEPARTMENT","5544 SHERIFF ROAD","CAPITOL HEIGHTS","MD","PRINCE GEORGES","24033",38.9062254,-76.9110713
"223","10407131","PRINCE GEORGES COUNTY FIRE DEPARTMENT STATION 847 - ALLENTOWN ROAD VOLUNTEER FIRE DEPARTMENT 2","10900 FORT WASHINGTON ROAD","FORT WASHINGTON","MD","PRINCE GEORGES","24033",38.7423492,-76.994111
"224","10407123","PRINCE GEORGES COUNTY FIRE/EMERGENCY MEDICAL SERVICES DEPARTMENT COMPANY 828 / WEST LANHAM HILLS VOLUNTEER FIRE DEPARTMENT - ANNAPOLIS ROAD","7609 ANNAPOLIS ROAD","HYATTSVILLE","MD","PRINCE GEORGES","24033",38.9521236,-76.8822569
"225","10407119","PRINCE GEORGES COUNTY VOLUNTEER FIRE DEPARTMENT COMPANY 805 - CAPITAL HEIGHTS VOLUNTEER FIRE DEPARTMENT","13008 9TH STREET","BOWIE","MD","PRINCE GEORGES","24033",39.0085479,-76.7808489
"226","10407115","PRINCE GEORGES COUNTY FIRE/EMERGENCY MEDICAL SERVICES DEPARTMENT COMPANY 811 / BRANCHVILLE VOLUNTEER FIRE DEPARTMENT","4905 BRANCHVILLE ROAD","COLLEGE PARK","MD","PRINCE GEORGES","24033",38.9989803,-76.9264743
"227","10407110","PRINCE GEORGES COUNTY VOLUNTEER FIRE DEPARTMENT COMPANY 805 - CAPITOL HEIGHTS","6061 CENTRAL AVENUE","CAPITOL HEIGHTS","MD","PRINCE GEORGES","24033",38.8843708,-76.9118964
"228","10407083","CABIN JOHN PARK VOLUNTEER FIRE DEPARTMENT STATION 30","9404 FALLS ROAD","POTOMAC","MD","MONTGOMERY","24031",39.010226,-77.220219
"229","10407081","FREDERICK COUNTY VOLUNTEER FIRE AND RESCUE ASSOCIATION STATION 1 - INDEPENDENT HOSE COMPANY","310 BAUGHMANS LANE","FREDERICK","MD","FREDERICK","24021",39.4268882,-77.4335965
"230","10406997","PRINCE GEORGES COUNTY VOLUNTEER FIRE DEPARTMENT COMPANY 844 - CHILLUM FIRE DEPARTMENT / ADELPHI EMERGENCY MEDICAL SERVICES","6330 RIGGS ROAD","ADELPHI","MD","PRINCE GEORGES","24033",38.9677174,-76.9871318
"231","10407062","GAITHERSBURG - WASHINGTON GROVE VOLUNTEER FIRE DEPARTMENT STATION 28","7272 MUNCASTER MILL ROAD","DERWOOD","MD","MONTGOMERY","24031",39.147984,-77.1469721
"232","10406991","KENSINGTON VOLUNTEER FIRE DEPARTMENT STATION 5","10620 CONNECTICUT AVENUE","KENSINGTON","MD","MONTGOMERY","24031",39.0299599,-77.0762032
"233","10407040","HILLANDALE VOLUNTEER FIRE DEPARTMENT STATION 12 - DOD","10617 NEW HAMPSHIRE AVENUE","SILVER SPRING","MD","MONTGOMERY","24031",39.030113,-76.9832212
"234","10407035","PRINCE GEORGES COUNTY VOLUNTEER FIRE DEPARTMENT COMPANY 824 - ACCOKEEK VOLUNTEER FIRE DEPARTMENT","16111 LIVINGSTON ROAD","ACCOKEEK","MD","PRINCE GEORGES","24033",38.6704873,-77.0266099
"235","10406972","ROCKVILLE VOLUNTEER FIRE DEPARTMENT STATION 31","12100 DARNESTOWN ROAD","NORTH POTOMAC","MD","MONTGOMERY","24031",39.1161038,-77.2504635
"236","10406971","KENSINGTON VOLUNTEER FIRE DEPARTMENT STATION 21","12500 VEIRS MILL ROAD","ROCKVILLE","MD","MONTGOMERY","24031",39.061433,-77.0925823
"237","10406967","FREDERICK COUNTY VOLUNTEER FIRE AND RESCUE ASSOCIATION STATION 30 - THURMONT COMMUNITY AMBULANCE COMPANY","27 NORTH CHURCH STREET","THURMONT","MD","FREDERICK","24021",39.6252215,-77.411211
"238","10407032","ROCKVILLE VOLUNTEER FIRE DEPARTMENT STATION 23","121 ROLLINS AVENUE","ROCKVILLE","MD","MONTGOMERY","24031",39.0589758,-77.1229079
"239","10406943","BETHESDA FIRE DEPARTMENT STATION 26","6700 DEMOCRACY BOULEVARD","BETHESDA","MD","MONTGOMERY","24031",39.0210722,-77.1376427
"240","10406936","WOODSBORO VOLUNTEER FIRE COMPANY 16","2 SOUTH 3RD STREET","WOODSBORO","MD","FREDERICK","24021",39.5347079,-77.312356
"241","10406931","PRINCE GEORGES COUNTY FIRE/EMERGENCY MEDICAL SERVICES DEPARTMENT COMPANY 809 / BLADENSBURG VOLUNTEER FIRE DEPARTMENT","4213 EDMONSTON ROAD","BLADENSBURG","MD","PRINCE GEORGES","24033",38.9415794,-76.933164
"242","10406928","SILVER SPRING VOLUNTEER FIRE DEPARTMENT STATION 16","111 UNIVERSITY BOULEVARD EAST","SILVER SPRING","MD","MONTGOMERY","24031",39.0172739,-77.0070553
"243","10406917","HILLANDALE VOLUNTEER FIRE DEPARTMENT STATION 24","13216 NEW HAMPSHIRE AVENUE","COLESVILLE","MD","MONTGOMERY","24031",39.0729934,-77.003239
"244","10406888","FREDERICK COUNTY VOLUNTEER FIRE AND RESCUE ASSOCIATION STATION 28 - CARROLL MANOR - POINT OF ROCKS STATION","1809 BALLENGER CREEK PIKE","POINT OF ROCKS","MD","FREDERICK","24021",39.2845887,-77.5294659
"245","10406883","KENSINGTON VOLUNTEER FIRE DEPARTMENT STATION 25","14401 CONNECTICUT AVENUE","SILVER SPRING","MD","MONTGOMERY","24031",39.0921969,-77.0690962
"246","10406875","PRINCE GEORGES COUNTY VOLUNTEER FIRE DEPARTMENT COMPANY 813 - RIVERDALE HEIGHTS VOLUNTEER FIRE DEPARTMENT","6101 ROANOKE AVENUE","RIVERDALE","MD","PRINCE GEORGES","24033",38.9631848,-76.9128537
"247","10407196","PRINCE GEORGES COUNTY VOLUNTEER FIRE DEPARTMENT COMPANY 831 - BELTSVILLE","4911 PRINCE GEORGES AVENUE","BELTSVILLE","MD","PRINCE GEORGES","24033",39.0386002,-76.9089283
"248","10406873","SANDY SPRING VOLUNTEER FIRE DEPARTMENT STATION 40","16911 GEORGIA AVENUE","OLNEY","MD","MONTGOMERY","24031",39.134112,-77.069235
"249","10406871","DAMASCUS VOLUNTEER FIRE DEPARTMENT STATION 13","26334 RIDGE ROAD","DAMASCUS","MD","MONTGOMERY","24031",39.2892318,-77.2051004
"250","10407185","PRINCE GEORGES COUNTY VOLUNTEER FIRE DEPARTMENT COMPANY 842 - OXEN HILL VOLUNTEER FIRE DEPARTMENT","1100 MARCY AVENUE","OXON HILL","MD","PRINCE GEORGES","24033",38.8181436,-76.9896668
"251","10407184","PRINCE GEORGES COUNTY VOLUNTEER FIRE DEPARTMENT COMPANY 821 - OXON HILL","7600 LIVINGSTON ROAD","OXON HILL","MD","PRINCE GEORGES","24033",38.7854092,-76.9902626
"252","10407180","PRINCE GEORGES COUNTY VOLUNTEER FIRE DEPARTMENT COMPANY 845 - MARLBORO VOLUNTEER FIRE DEPARTMENT STATION 2","7710 CROOM ROAD","UPPER MARLBORO","MD","PRINCE GEORGES","24033",38.7830842,-76.7883111
"253","10406813","CHEVY CHASE FIRE DEPARTMENT STATION 7","8001 CONNECTICUT AVENUE","CHEVY CHASE","MD","MONTGOMERY","24031",38.9907032,-77.0766959
"254","10407171","PRINCE GEORGES COUNTY FIRE/EMERGENCY MEDICAL SERVICES DEPARTMENT COMPANY 843 / BOWIE VOLUNTEER FIRE DEPARTMENT - POINTER RIDGE","16408 POINTER RIDGE DRIVE","BOWIE","MD","PRINCE GEORGES","24033",38.909862,-76.7202852
"255","10424584","NATIONAL INSTITUTE OF STANDARDS AND TECHNOLOGY FIRE DEPARTMENT","809 WEST DIAMOND AVENUE","GAITHERSBURG","MD","MONTGOMERY","24031",39.1417545,-77.2188629
"256","10406989","MONTGOMERY COUNTY FIRE STATION TRAINING ACADEMY STATION 27","9710 GREAT SENECA HIGHWAY","ROCKVILLE","MD","MONTGOMERY","24031",39.099173,-77.2050986
"257","10407426","FREDERICK COUNTY VOLUNTEER FIRE AND RESCUE ASSOCIATION - HEADQUARTERS","340 MONTEVUE LANE","FREDERICK","MD","FREDERICK","24021",39.4320235,-77.4392115
"258","10406881","FREDERICK COUNTY VOLUNTEER FIRE AND RESCUE ASSOCIATION STATION 26 - EMMITSBURG AMBULANCE COMPANY INCORPORATED","17701 CREAMERY ROAD","EMMITSBURG","MD","FREDERICK","24021",39.6998896,-77.3202987
"259","10407419","FREDERICK COUNTY VOLUNTEER FIRE AND RESCUE ASSOCIATION STATION 31 - UNITED - WESTVIEW STATION","5525 NEW DESIGN ROAD","FREDERICK","MD","FREDERICK","24021",39.3832117,-77.4211802
